0 BS-3A (YURI 3A)
1 20771U 90077A   13281.43742096  .00000021  00000-0  10000-3 0   235
2 20771 013.1496 041.1163 0013269 138.2586 221.8446 00.98809575 89783
0 BS-3A (YURI 3A)
1 20771U 90077A   13286.49739045 -.00000092  00000-0  10000-3 0   257
2 20771 013.1580 041.0559 0013317 140.1120 219.9872 00.98811525 89830
0 BS-3A (YURI 3A)
1 20771U 90077A   13288.52131373 -.00000150  00000-0  10000-3 0   269
2 20771 013.1613 041.0313 0013246 140.1363 219.9478 00.98812272 89859
0 BS-3A (YURI 3A)
1 20771U 90077A   13289.53327121 -.00000178  00000-0  10000-3 0   270
2 20771 013.1631 041.0190 0012973 141.0070 219.0662 00.98812574 89865
0 BS-3A (YURI 3A)
1 20771U 90077A   13292.56912978 -.00000247  00000-0  10000-3 0   285
2 20771 013.1681 040.9824 0012830 142.3483 217.7054 00.98813203 89899
0 BS-3A (YURI 3A)
1 20771U 90077A   13294.59305866 -.00000271  00000-0  10000-3 0   290
2 20771 013.1716 040.9580 0012855 142.8141 217.2358 00.98813183 89912
